{
  "norad_id": 64611,
  "name": "STARLINK-34494",
  "history": [
    {
      "epoch": "2026-03-28T18:07:58.217952",
      "apogee_km": 475.70098218625117,
      "perigee_km": 474.67668410722945,
      "latitude_deg": -35.78565528330959,
      "longitude_deg": -6.368646719958633,
      "semi_major_axis_km": 6853.3258331467405,
      "eccentricity": 7.473e-05,
      "inclination_deg": 53.1598,
      "raan_deg": 246.6952,
      "arg_perigee_deg": 103.5424,
      "mean_anomaly_deg": 256.566,
      "mean_motion_rev_day": 15.30208787
    }
  ]
}